[{"OBJECT_NAME":"STARLINK-31087","OBJECT_ID":"2023-200J","EPOCH":"2026-03-08T16:18:11.069856","MEAN_MOTION":15.26741848,"ECCENTRICITY":9.134e-5,"INCLINATION":42.9986,"RA_OF_ASC_NODE":173.9308,"ARG_OF_PERICENTER":268.8991,"MEAN_ANOMALY":91.1755,"EPHEMERIS_TYPE":0,"CLASSIFICATION_TYPE":"U","NORAD_CAT_ID":58597,"ELEMENT_SET_NO":999,"REV_AT_EPOCH":12335,"BSTAR":6.3485287e-5,"MEAN_MOTION_DOT":1.444e-5,"MEAN_MOTION_DDOT":0},{"OBJECT_NAME":"OBJECT E","OBJECT_ID":"2026-023E","EPOCH":"2026-03-09T23:33:47.695392","MEAN_MOTION":15.23129165,"ECCENTRICITY":0.00204824,"INCLINATION":96.6311,"RA_OF_ASC_NODE":141.8855,"ARG_OF_PERICENTER":125.9066,"MEAN_ANOMALY":234.4078,"EPHEMERIS_TYPE":0,"CLASSIFICATION_TYPE":"U","NORAD_CAT_ID":67678,"ELEMENT_SET_NO":999,"REV_AT_EPOCH":489,"BSTAR":0.00066049733,"MEAN_MOTION_DOT":0.00015639,"MEAN_MOTION_DDOT":0}]
